COMMENT,ORIGINATOR,NORAD_CAT_ID,OBJECT_NAME,OBJECT_TYPE,CLASSIFICATION_TYPE,INTLDES,EPOCH,EPOCH_MICROSECONDS,MEAN_MOTION,ECCENTRICITY,INCLINATION,RA_OF_ASC_NODE,ARG_OF_PERICENTER,MEAN_ANOMALY,EPHEMERIS_TYPE,ELEMENT_SET_NO,REV_AT_EPOCH,BSTAR,MEAN_MOTION_DOT,MEAN_MOTION_DDOT,FILE,TLE_LINE0,TLE_LINE1,TLE_LINE2,OBJECT_ID,OBJECT_NUMBER,SEMIMAJOR_AXIS,PERIOD,APOGEE,PERIGEE,DECAYED
"GENERATED VIA SPACETRACK.ORG API","18 SPCS","48904","SPACEBEE-111","PAYLOAD","U","21059AB","2022-12-05 03:10:58","531296","15.20756095","0.0009085","97.5774","109.28","224.5965","135.454","0","999","7985","0.00070103","0.000154","0","3682099","0 SPACEBEE-111","1 48904U 21059AB  22339.13262189  .00015400  00000-0  70103-3 0  9997","2 48904  97.5774 109.2800 0009085 224.5965 135.4540 15.20756095 79852","2021-059AB","48904","6881.696","94.690","509.813","497.309","1"
"GENERATED VIA SPACETRACK.ORG API","18 SPCS","48904","SPACEBEE-111","PAYLOAD","U","21059AB","2022-12-05 18:58:28","211520","15.20777288","0.0009108","97.5776","109.9417","222.3212","137.7322","0","999","7995","0.00071726","0.00015769","0","3682465","0 SPACEBEE-111","1 48904U 21059AB  22339.79060430  .00015769  00000-0  71726-3 0  9994","2 48904  97.5776 109.9417 0009108 222.3212 137.7322 15.20777288 79953","2021-059AB","48904","6881.632","94.688","509.765","497.229","1"
"GENERATED VIA SPACETRACK.ORG API","18 SPCS","48904","SPACEBEE-111","PAYLOAD","U","21059AB","2022-12-06 07:36:27","384768","15.20792615","0.000912","97.5778","110.4712","220.2865","139.7695","0","999","8003","0.00063802","0.00014022","0","3682870","0 SPACEBEE-111","1 48904U 21059AB  22340.31698362  .00014022  00000-0  63802-3 0  9992","2 48904  97.5778 110.4712 0009120 220.2865 139.7695 15.20792615 80032","2021-059AB","48904","6881.586","94.687","509.727","497.175","1"
"GENERATED VIA SPACETRACK.ORG API","18 SPCS","48904","SPACEBEE-111","PAYLOAD","U","21059AB","2022-12-06 07:36:27","384768","15.20792615","0.000912","97.5778","110.4712","220.2865","139.7695","0","999","8003","0.00063802","0.00014022","0","3683104","0 SPACEBEE-111","1 48904U 21059AB  22340.31698362  .00014022  00000-0  63802-3 0  9992","2 48904  97.5778 110.4712 0009120 220.2865 139.7695 15.20792615 80032","2021-059AB","48904","6881.586","94.687","509.727","497.175","1"
"GENERATED VIA SPACETRACK.ORG API","18 SPCS","48904","SPACEBEE-111","PAYLOAD","U","21059AB","2022-12-07 08:52:24","223584","15.20825994","0.0009139","97.5783","111.5301","215.9829","144.0791","0","999","8019","0.00063044","0.00013868","0","3683733","0 SPACEBEE-111","1 48904U 21059AB  22341.36972481  .00013868  00000-0  63044-3 0  9990","2 48904  97.5783 111.5301 0009139 215.9829 144.0791 15.20825994 80195","2021-059AB","48904","6881.485","94.685","509.639","497.061","1"
"GENERATED VIA SPACETRACK.ORG API","18 SPCS","48904","SPACEBEE-111","PAYLOAD","U","21059AB","2022-12-07 08:52:24","223584","15.20825994","0.0009139","97.5783","111.5301","215.9829","144.0791","0","999","8019","0.00063044","0.00013868","0","3684212","0 SPACEBEE-111","1 48904U 21059AB  22341.36972481  .00013868  00000-0  63044-3 0  9990","2 48904  97.5783 111.5301 0009139 215.9829 144.0791 15.20825994 80195","2021-059AB","48904","6881.485","94.685","509.639","497.061","1"
"GENERATED VIA SPACETRACK.ORG API","18 SPCS","48904","SPACEBEE-111","PAYLOAD","U","21059AB","2022-12-08 02:14:35","803680","15.20857601","0.0009152","97.5787","112.258","213.1047","146.9616","0","999","8030","0.00092929","0.00020512","0","3684346","0 SPACEBEE-111","1 48904U 21059AB  22342.09346995  .00020512  00000-0  92929-3 0  9994","2 48904  97.5787 112.2580 0009152 213.1047 146.9616 15.20857601 80303","2021-059AB","48904","6881.389","94.683","509.552","496.957","1"
"GENERATED VIA SPACETRACK.ORG API","18 SPCS","48904","SPACEBEE-111","PAYLOAD","U","21059AB","2022-12-08 02:14:35","803680","15.20857601","0.0009152","97.5787","112.258","213.1047","146.9616","0","999","8030","0.00092929","0.00020512","0","3684614","0 SPACEBEE-111","1 48904U 21059AB  22342.09346995  .00020512  00000-0  92929-3 0  9994","2 48904  97.5787 112.2580 0009152 213.1047 146.9616 15.20857601 80303","2021-059AB","48904","6881.389","94.683","509.552","496.957","1"
"GENERATED VIA SPACETRACK.ORG API","18 SPCS","48904","SPACEBEE-111","PAYLOAD","U","21059AB","2022-12-08 14:52:32","559456","15.20875632","0.0009187","97.5785","112.7874","211.0397","149.0296","0","999","8038","0.00083619","0.00018455","0","3684925","0 SPACEBEE-111","1 48904U 21059AB  22342.61982129  .00018455  00000-0  83619-3 0  9996","2 48904  97.5785 112.7874 0009187 211.0397 149.0296 15.20875632 80385","2021-059AB","48904","6881.335","94.682","509.522","496.878","1"
"GENERATED VIA SPACETRACK.ORG API","18 SPCS","48904","SPACEBEE-111","PAYLOAD","U","21059AB","2022-12-08 22:46:15","213216","15.20890058","0.0009189","97.5784","113.1182","210.3049","149.7656","0","999","8043","0.00087329","0.00019287","0","3685263","0 SPACEBEE-111","1 48904U 21059AB  22342.94878719  .00019287  00000-0  87329-3 0  9997","2 48904  97.5784 113.1182 0009189 210.3049 149.7656 15.20890058 80431","2021-059AB","48904","6881.292","94.681","509.480","496.833","1"
"GENERATED VIA SPACETRACK.ORG API","18 SPCS","48904","SPACEBEE-111","PAYLOAD","U","21059AB","2022-12-09 19:17:53","185920","15.20916421","0.0009244","97.5785","113.9786","207.358","152.7169","0","999","8056","0.00071843","0.0001586","0","3685498","0 SPACEBEE-111","1 48904U 21059AB  22343.80408780  .00015860  00000-0  71843-3 0  9997","2 48904  97.5785 113.9786 0009244 207.3580 152.7169 15.20916421 80568","2021-059AB","48904","6881.212","94.680","509.438","496.716","1"
"GENERATED VIA SPACETRACK.ORG API","18 SPCS","48904","SPACEBEE-111","PAYLOAD","U","21059AB","2022-12-10 14:14:45","475296","15.20943558","0.0009264","97.5786","114.7728","204.807","155.2721","0","999","8068","0.00075679","0.00016725","0","3688140","0 SPACEBEE-111","1 48904U 21059AB  22344.59358189  .00016725  00000-0  75679-3 0  9993","2 48904  97.5786 114.7728 0009264 204.8070 155.2721 15.20943558 80688","2021-059AB","48904","6881.130","94.678","509.370","496.621","1"
"GENERATED VIA SPACETRACK.ORG API","18 SPCS","48904","SPACEBEE-111","PAYLOAD","U","21059AB","2022-12-10 18:58:58","356480","15.20950773","0.0009279","97.5786","114.9713","204.0886","155.9916","0","999","8071","0.00076422","0.00016894","0","3688965","0 SPACEBEE-111","1 48904U 21059AB  22344.79095320  .00016894  00000-0  76422-3 0  9994","2 48904  97.5786 114.9713 0009279 204.0886 155.9916 15.20950773 80711","2021-059AB","48904","6881.108","94.678","509.358","496.588","1"
"GENERATED VIA SPACETRACK.ORG API","18 SPCS","48904","SPACEBEE-111","PAYLOAD","U","21059AB","2022-12-10 22:08:26","905632","15.20955181","0.0009274","97.5787","115.1037","203.6498","156.4312","0","999","8073","0.00075826","0.00016764","0","3689427","0 SPACEBEE-111","1 48904U 21059AB  22344.92253363  .00016764  00000-0  75826-3 0  9995","2 48904  97.5787 115.1037 0009274 203.6498 156.4312 15.20955181 80739","2021-059AB","48904","6881.095","94.677","509.342","496.579","1"
"GENERATED VIA SPACETRACK.ORG API","18 SPCS","48904","SPACEBEE-111","PAYLOAD","U","21059AB","2022-12-11 07:36:52","307712","15.20969676","0.000928","97.5788","115.5008","202.2593","157.8241","0","999","8079","0.00076368","0.00016892","0","3691993","0 SPACEBEE-111","1 48904U 21059AB  22345.31727208  .00016892  00000-0  76368-3 0  9997","2 48904  97.5788 115.5008 0009280 202.2593 157.8241 15.20969676 80796","2021-059AB","48904","6881.051","94.676","509.302","496.531","1"
"GENERATED VIA SPACETRACK.ORG API","18 SPCS","48904","SPACEBEE-111","PAYLOAD","U","21059AB","2022-12-12 04:08:26","229120","15.21002208","0.0009284","97.5791","116.3614","198.7815","161.3079","0","999","8092","0.00080398","0.00017806","0","3692406","0 SPACEBEE-111","1 48904U 21059AB  22346.17252580  .00017806  00000-0  80398-3 0  9992","2 48904  97.5791 116.3614 0009284 198.7815 161.3079 15.21002208 80926","2021-059AB","48904","6880.953","94.674","509.207","496.430","1"
"GENERATED VIA SPACETRACK.ORG API","18 SPCS","48904","SPACEBEE-111","PAYLOAD","U","21059AB","2022-12-12 08:52:38","437248","15.21009894","0.0009268","97.5791","116.56","198.2823","161.808","0","999","8095","0.00079645","0.00017642","0","3694071","0 SPACEBEE-111","1 48904U 21059AB  22346.36988932  .00017642  00000-0  79645-3 0  9991","2 48904  97.5791 116.5600 0009268 198.2823 161.8080 15.21009894 80957","2021-059AB","48904","6880.930","94.674","509.172","496.418","1"
"GENERATED VIA SPACETRACK.ORG API","18 SPCS","48904","SPACEBEE-111","PAYLOAD","U","21059AB","2022-12-13 06:58:54","448608","15.21042875","0.0009306","97.579","117.4866","194.7378","165.3587","0","999","8109","0.00078411","0.00017384","0","3696684","0 SPACEBEE-111","1 48904U 21059AB  22347.29090797  .00017384  00000-0  78411-3 0  9990","2 48904  97.5790 117.4866 0009306 194.7378 165.3587 15.21042875 81092","2021-059AB","48904","6880.831","94.672","509.099","496.292","1"
"GENERATED VIA SPACETRACK.ORG API","18 SPCS","48904","SPACEBEE-111","PAYLOAD","U","21059AB","2022-12-13 14:52:34","46400","15.21051952","0.0009324","97.5788","117.8176","193.5759","166.5227","0","999","8114","0.00071103","0.00015758","0","3697190","0 SPACEBEE-111","1 48904U 21059AB  22347.61983850  .00015758  00000-0  71103-3 0  9991","2 48904  97.5788 117.8176 0009324 193.5759 166.5227 15.21051952 81143","2021-059AB","48904","6880.803","94.671","509.084","496.253","1"
"GENERATED VIA SPACETRACK.ORG API","18 SPCS","48904","SPACEBEE-111","PAYLOAD","U","21059AB","2022-12-14 08:14:36","387744","15.21078309","0.0009364","97.5786","118.5456","191.2248","168.8779","0","999","8125","0.00072539","0.00016091","0","3698874","0 SPACEBEE-111","1 48904U 21059AB  22348.34347671  .00016091  00000-0  72539-3 0  9992","2 48904  97.5786 118.5456 0009364 191.2248 168.8779 15.21078309 81256","2021-059AB","48904","6880.724","94.670","509.032","496.146","1"
